QZS-1R                  
1 49336U 21096A   24118.79404385 -.00000194  00000+0  00000+0 0  9992
2 49336  35.8424  91.2901 0753138 270.5234 275.4799  1.00276656  9178
